NORAD_CAT_ID,OBJECT_NAME,OBJECT_TYPE,EPOCH,MEAN_MOTION,ECCENTRICITY,INCLINATION,RA_OF_ASC_NODE,ARG_OF_PERICENTER,MEAN_ANOMALY,BSTAR,MEAN_MOTION_DOT,MEAN_MOTION_DDOT,TLE_LINE0,TLE_LINE1,TLE_LINE2,SEMIMAJOR_AXIS,PERIOD,APOGEE,PERIGEE,DECAYED
54768.0,STARLINK-5444,PAYLOAD,2024-07-27 21:15:13,15.08832965,0.0001281,53.2166,157.2398,85.1773,274.9365,-4.1704e-05,-9.51e-06,0.0,0 STARLINK-5444,1 54768U 22175L   24209.88557836 -.00000951  00000-0 -41704-4 0  9991,2 54768  53.2166 157.2398 0001281  85.1773 274.9365 15.08832965 91084,6917.902,95.438,540.653,538.881,0.0
54768.0,STARLINK-5444,PAYLOAD,2024-07-28 03:36:46,15.08834102,0.0001333,53.2166,156.0515,85.7249,274.3895,-5.211e-05,-1.117e-05,0.0,0 STARLINK-5444,1 54768U 22175L   24210.15053886 -.00001117  00000-0 -52110-4 0  9997,2 54768  53.2166 156.0515 0001333  85.7249 274.3895 15.08834102 88964,6917.898,95.438,540.686,538.841,0.0
54768.0,STARLINK-5444,PAYLOAD,2024-07-28 13:09:05,15.08833609,0.0001342,53.2168,154.2677,86.3228,273.7918,-6.9839e-05,-1.399e-05,0.0,0 STARLINK-5444,1 54768U 22175L   24210.54798099 -.00001399  00000-0 -69839-4 0  9990,2 54768  53.2168 154.2677 0001342  86.3228 273.7918 15.08833609 91187,6917.9,95.438,540.693,538.837,0.0
54768.0,STARLINK-5444,PAYLOAD,2024-07-29 03:27:32,15.08841771,0.0001246,53.216,151.5894,78.6181,281.4951,0.00016003,2.26e-05,0.0,0 STARLINK-5444,1 54768U 22175L   24211.14412976  .00002260  00000-0  16003-3 0  9994,2 54768  53.2160 151.5894 0001246  78.6181 281.4951 15.08841771 89117,6917.875,95.437,540.602,538.878,0.0
54768.0,STARLINK-5444,PAYLOAD,2024-07-29 12:59:52,15.08836985,0.000125,53.2156,149.808,93.8025,266.311,8.9905e-05,1.143e-05,0.0,0 STARLINK-5444,1 54768U 22175L   24211.54157605  .00001143  00000-0  89905-4 0  9994,2 54768  53.2156 149.8080 0001250  93.8025 266.3110 15.08836985 89176,6917.89,95.438,540.619,538.89,0.0
54768.0,STARLINK-5444,PAYLOAD,2024-07-29 19:21:25,15.08822317,0.0001347,53.2167,148.6198,91.5586,268.5561,0.0002262,3.312e-05,0.0,0 STARLINK-5444,1 54768U 22175L   24211.80654113  .00003312  00000-0  22620-3 0  9999,2 54768  53.2167 148.6198 0001347  91.5586 268.5561 15.08822317 89212,6917.934,95.439,540.731,538.868,0.0
54768.0,STARLINK-5444,PAYLOAD,2024-07-30 12:50:39,15.08839056,0.0001396,53.2161,145.3469,82.9904,277.1247,0.00011372,1.522e-05,0.0,0 STARLINK-5444,1 54768U 22175L   24212.53517846  .00001522  00000-0  11372-3 0  9994,2 54768  53.2161 145.3469 0001396  82.9904 277.1247 15.08839056 89320,6917.883,95.438,540.714,538.783,0.0
54768.0,STARLINK-5444,PAYLOAD,2024-07-30 19:12:11,15.08841818,0.0001299,53.2158,144.1578,85.0623,275.0518,9.7659e-05,1.267e-05,0.0,0 STARLINK-5444,1 54768U 22175L   24212.80013685  .00001267  00000-0  97659-4 0  9995,2 54768  53.2158 144.1578 0001299  85.0623 275.0518 15.08841818 91520,6917.875,95.437,540.638,538.841,0.0
54768.0,STARLINK-5444,PAYLOAD,2024-07-31 03:09:06,15.08853281,0.0001458,53.2169,142.6718,86.4275,273.6884,9.1323e-05,1.166e-05,0.0,0 STARLINK-5444,1 54768U 22175L   24213.13132957  .00001166  00000-0  91323-4 0  9996,2 54768  53.2169 142.6718 0001458  86.4275 273.6884 15.08853281 89418,6917.84,95.437,540.713,538.696,0.0
54768.0,STARLINK-5444,PAYLOAD,2024-07-31 12:41:26,15.0884674,0.0001546,53.2166,140.8857,79.8088,280.3078,-9.5883e-05,-1.814e-05,0.0,0 STARLINK-5444,1 54768U 22175L   24213.52877733 -.00001814  00000-0 -95883-4 0  9994,2 54768  53.2166 140.8857 0001546  79.8088 280.3078 15.08846740 89473,6917.86,95.437,540.794,538.655,0.0
54768.0,STARLINK-5444,PAYLOAD,2024-07-31 19:02:59,15.08833398,0.0001724,53.2163,139.6971,83.4544,276.6644,2.4719e-06,-2.49e-06,0.0,0 STARLINK-5444,1 54768U 22175L   24213.79374530 -.00000249  00000-0  24719-5 0  9991,2 54768  53.2163 139.6971 0001724  83.4544 276.6644 15.08833398 89516,6917.901,95.438,540.958,538.573,0.0
54768.0,STARLINK-5444,PAYLOAD,2024-08-01 12:32:13,15.08843975,0.0001587,53.2172,136.4255,93.0432,267.0742,4.6859e-05,4.58e-06,0.0,0 STARLINK-5444,1 54768U 22175L   24214.52237728  .00000458  00000-0  46859-4 0  9999,2 54768  53.2172 136.4255 0001587  93.0432 267.0742 15.08843975 89623,6917.868,95.437,540.831,538.635,0.0
54768.0,STARLINK-5444,PAYLOAD,2024-08-01 22:04:31,15.08853555,0.0001539,53.2157,134.642,88.265,271.8519,9.9821e-05,1.302e-05,0.0,0 STARLINK-5444,1 54768U 22175L   24214.91980791  .00001302  00000-0  99821-4 0  9993,2 54768  53.2157 134.6420 0001539  88.2650 271.8519 15.08853555 89681,6917.839,95.437,540.769,538.639,0.0
54768.0,STARLINK-5444,PAYLOAD,2024-08-02 01:15:17,15.08856577,0.0001459,53.2165,134.0465,93.3036,266.8123,0.00019104,2.755e-05,0.0,0 STARLINK-5444,1 54768U 22175L   24215.05228355  .00002755  00000-0  19104-3 0  9998,2 54768  53.2165 134.0465 0001459  93.3036 266.8123 15.08856577 91864,6917.83,95.437,540.704,538.685,0.0
54768.0,STARLINK-5444,PAYLOAD,2024-08-02 18:44:33,15.08833841,0.0001496,53.2159,130.7762,85.2584,274.8579,0.00011423,1.53e-05,0.0,0 STARLINK-5444,1 54768U 22175L   24215.78094263  .00001530  00000-0  11423-3 0  9993,2 54768  53.2159 130.7762 0001496  85.2584 274.8579 15.08833841 89814,6917.899,95.438,540.799,538.729,0.0
54768.0,STARLINK-5444,PAYLOAD,2024-08-02 21:55:19,15.08832171,0.0001484,53.216,130.179,101.1446,258.9713,2.5456e-05,1.17e-06,0.0,0 STARLINK-5444,1 54768U 22175L   24215.91342287  .00000117  00000-0  25456-4 0  9992,2 54768  53.2160 130.1790 0001484 101.1446 258.9713 15.08832171 91993,6917.904,95.438,540.796,538.743,0.0
54768.0,STARLINK-5444,PAYLOAD,2024-08-03 04:16:52,15.08835766,0.0001487,53.216,128.9905,104.661,255.4547,4.6637e-05,4.54e-06,0.0,0 STARLINK-5444,1 54768U 22175L   24216.17838266  .00000454  00000-0  46637-4 0  9996,2 54768  53.2160 128.9905 0001487 104.6610 255.4547 15.08835766 92036,6917.893,95.438,540.787,538.73,0.0
54768.0,STARLINK-5444,PAYLOAD,2024-08-03 21:46:06,15.08836878,0.000151,53.216,125.7201,107.5839,252.5318,2.2824e-05,7.5e-07,0.0,0 STARLINK-5444,1 54768U 22175L   24216.90702357  .00000075  00000-0  22824-4 0  9999,2 54768  53.2160 125.7201 0001510 107.5839 252.5318 15.08836878 92143,6917.89,95.438,540.8,538.71,0.0
54768.0,STARLINK-5444,PAYLOAD,2024-08-04 00:56:52,15.08842299,0.0001542,53.2161,125.1247,106.1225,253.9937,0.00013667,1.888e-05,0.0,0 STARLINK-5444,1 54768U 22175L   24217.03950152  .00001888  00000-0  13667-3 0  9999,2 54768  53.2161 125.1247 0001542 106.1225 253.9937 15.08842299 90006,6917.873,95.437,540.805,538.672,0.0
54768.0,STARLINK-5444,PAYLOAD,2024-08-04 10:29:11,15.08848293,0.00015,53.2162,123.3408,107.8393,252.2763,0.00031127,4.67e-05,0.0,0 STARLINK-5444,1 54768U 22175L   24217.43693983  .00004670  00000-0  31127-3 0  9992,2 54768  53.2162 123.3408 0001500 107.8393 252.2763 15.08848293 92229,6917.855,95.437,540.758,538.682,0.0
54768.0,STARLINK-5444,PAYLOAD,2024-08-04 21:36:53,15.08856369,0.0001769,53.217,121.2636,113.9818,246.136,0.00049107,7.539e-05,0.0,0 STARLINK-5444,1 54768U 22175L   24217.90061907  .00007539  00000-0  49107-3 0  9993,2 54768  53.2170 121.2636 0001769 113.9818 246.1360 15.08856369 92290,6917.83,95.437,540.919,538.472,0.0
54768.0,STARLINK-5444,PAYLOAD,2024-08-05 00:47:39,15.08864132,0.0001582,53.2166,120.6709,114.2599,245.8559,0.00071073,0.00011049,0.0,0 STARLINK-5444,1 54768U 22175L   24218.03309682  .00011049  00000-0  71073-3 0  9991,2 54768  53.2166 120.6709 0001582 114.2599 245.8559 15.08864132 90158,6917.807,95.436,540.766,538.577,0.0
54768.0,STARLINK-5444,PAYLOAD,2024-08-05 21:27:41,15.0882133,0.0001412,53.2164,116.8044,92.8898,267.2256,-0.00048944,-8.065e-05,0.0,0 STARLINK-5444,1 54768U 22175L   24218.89422639 -.00008065  00000-0 -48944-3 0  9990,2 54768  53.2164 116.8044 0001412  92.8898 267.2256 15.08821330 90289,6917.937,95.439,540.779,538.826,0.0
54768.0,STARLINK-5444,PAYLOAD,2024-08-05 23:03:04,15.08820857,0.0001422,53.2166,116.5072,91.712,268.4035,-0.00044971,-7.434e-05,0.0,0 STARLINK-5444,1 54768U 22175L   24218.96046719 -.00007434  00000-0 -44971-3 0  9994,2 54768  53.2166 116.5072 0001422  91.7120 268.4035 15.08820857 92458,6917.939,95.439,540.788,538.82,0.0
54768.0,STARLINK-5444,PAYLOAD,2024-08-06 03:49:13,15.08825181,0.0001692,53.217,115.6087,66.2495,293.8675,-0.00015214,-2.708e-05,0.0,0 STARLINK-5444,1 54768U 22175L   24219.15918972 -.00002708  00000-0 -15214-3 0  9992,2 54768  53.2170 115.6087 0001692  66.2495 293.8675 15.08825181 92480,6917.926,95.438,540.961,538.62,0.0
54768.0,STARLINK-5444,PAYLOAD,2024-08-06 16:32:19,15.08835979,0.0001512,53.2167,113.2316,77.7594,282.3568,0.0009592,0.00015009,0.0,0 STARLINK-5444,1 54768U 22175L   24219.68911337  .00015009  00000-0  95920-3 0  9996,2 54768  53.2167 113.2316 0001512  77.7594 282.3568 15.08835979 90403,6917.893,95.438,540.804,538.712,0.0
54768.0,STARLINK-5444,PAYLOAD,2024-08-06 21:18:28,15.08854201,0.0001258,53.2156,112.3424,80.7434,279.37,0.0013466,0.00021216,0.0,0 STARLINK-5444,1 54768U 22175L   24219.88782983  .00021216  00000-0  13466-2 0  9992,2 54768  53.2156 112.3424 0001258  80.7434 279.3700 15.08854201 92590,6917.837,95.437,540.572,538.832,0.0
54768.0,STARLINK-5444,PAYLOAD,2024-08-07 02:04:37,15.08868722,0.0001282,53.2152,111.4487,78.0285,282.0851,0.0016836,0.00026629,0.0,0 STARLINK-5444,1 54768U 22175L   24220.08654625  .00026629  00000-0  16836-2 0  9994,2 54768  53.2152 111.4487 0001282  78.0285 282.0851 15.08868722 90461,6917.793,95.436,540.544,538.771,0.0
54768.0,STARLINK-5444,PAYLOAD,2024-08-07 21:09:15,15.08868091,0.0001389,53.2153,107.88,86.8091,273.306,0.0017637,0.00027914,0.0,0 STARLINK-5444,1 54768U 22175L   24220.88142465  .00027914  00000-0  17637-2 0  9994,2 54768  53.2153 107.8800 0001389  86.8091 273.3060 15.08868091 90587,6917.795,95.436,540.62,538.699,0.0
54768.0,STARLINK-5444,PAYLOAD,2024-08-08 22:35:25,15.08869998,0.0001493,53.2148,103.1221,91.4198,268.6965,0.0019457,0.00030839,0.0,0 STARLINK-5444,1 54768U 22175L   24221.94126432  .00030839  00000-0  19457-2 0  9990,2 54768  53.2148 103.1221 0001493  91.4198 268.6965 15.08869998 90749,6917.789,95.436,540.687,538.621,0.0
